NORAD_CAT_ID,OBJECT_NAME,OBJECT_TYPE,EPOCH,MEAN_MOTION,ECCENTRICITY,INCLINATION,RA_OF_ASC_NODE,ARG_OF_PERICENTER,MEAN_ANOMALY,BSTAR,MEAN_MOTION_DOT,MEAN_MOTION_DDOT,TLE_LINE0,TLE_LINE1,TLE_LINE2,SEMIMAJOR_AXIS,PERIOD,APOGEE,PERIGEE,DECAYED
56813.0,STARLINK-6056,PAYLOAD,2023-11-20 14:00:01,14.99155321,0.0002911,70.0012,302.4976,270.8081,117.8063,-0.0038529,-0.00046748,0.0,0 STARLINK-6056,1 56813U 23078AY  23324.58334491 -.00046748  00000-0 -38529-2 0  9994,2 56813  70.0012 302.4976 0002911 270.8081 117.8063 14.99155321  5691,6947.642,96.054,571.529,567.484,0.0
56813.0,STARLINK-6056,PAYLOAD,2023-11-20 15:28:31,14.99113661,0.0002083,70.0002,302.3424,270.0758,90.0163,-0.00047188,-5.834e-05,0.0,0 STARLINK-6056,1 56813U 23078AY  23324.64481033 -.00005834  00000-0 -47188-3 0  9999,2 56813  70.0002 302.3424 0002083 270.0758  90.0163 14.99113661 27115,6947.771,96.057,571.083,568.188,0.0
56813.0,STARLINK-6056,PAYLOAD,2023-11-21 02:41:03,14.99136055,0.0002553,70.0002,301.1631,269.4978,90.5888,-1.8195e-05,-3.15e-06,0.0,0 STARLINK-6056,1 56813U 23078AY  23325.11185182 -.00000315  00000-0 -18195-4 0  9994,2 56813  70.0002 301.1631 0002553 269.4978  90.5888 14.99136055 27188,6947.701,96.055,571.34,567.793,0.0
56813.0,STARLINK-6056,PAYLOAD,2023-11-21 09:05:23,14.99140007,0.0002195,70.0007,300.4891,259.8194,100.2718,5.8977e-06,-2.2e-07,0.0,0 STARLINK-6056,1 56813U 23078AY  23325.37874463 -.00000022  00000-0  58977-5 0  9996,2 56813  70.0007 300.4891 0002195 259.8194 100.2718 14.99140007 26966,6947.689,96.055,571.079,568.029,0.0
56813.0,STARLINK-6056,PAYLOAD,2023-11-22 02:42:18,14.99138106,0.0002305,70.0,298.6366,250.7544,109.3366,-2.6657e-05,-4.18e-06,0.0,0 STARLINK-6056,1 56813U 23078AY  23326.11270914 -.00000418  00000-0 -26657-4 0  9999,2 56813  70.0000 298.6366 0002305 250.7544 109.3366 14.99138106 27334,6947.695,96.055,571.161,567.959,0.0
56813.0,STARLINK-6056,PAYLOAD,2023-11-22 09:06:37,14.99140346,0.0002257,70.0005,297.9628,258.5791,101.5115,2.3973e-05,1.99e-06,0.0,0 STARLINK-6056,1 56813U 23078AY  23326.37960318  .00000199  00000-0  23973-4 0  9993,2 56813  70.0005 297.9628 0002257 258.5791 101.5115 14.99140346 27119,6947.688,96.055,571.121,567.985,0.0
56813.0,STARLINK-6056,PAYLOAD,2023-11-23 02:43:32,14.99139847,0.0002565,70.0002,296.1106,258.396,101.6912,-1.3776e-05,-2.61e-06,0.0,0 STARLINK-6056,1 56813U 23078AY  23327.11356651 -.00000261  00000-0 -13776-4 0  9997,2 56813  70.0002 296.1106 0002565 258.3960 101.6912 14.99139847 27486,6947.69,96.055,571.337,567.773,0.0
56813.0,STARLINK-6056,PAYLOAD,2023-11-23 07:31:46,14.99144709,0.0002459,70.0003,295.6048,269.3275,90.7603,6.4194e-05,6.89e-06,0.0,0 STARLINK-6056,1 56813U 23078AY  23327.31373372  .00000689  00000-0  64194-4 0  9990,2 56813  70.0003 295.6048 0002459 269.3275  90.7603 14.99144709 27511,6947.675,96.055,571.248,567.831,0.0
56813.0,STARLINK-6056,PAYLOAD,2023-11-24 02:44:47,14.9913279,0.0002674,70.0003,293.5846,262.6105,97.475,-6.0393e-05,-8.29e-06,0.0,0 STARLINK-6056,1 56813U 23078AY  23328.11443315 -.00000829  00000-0 -60393-4 0  9999,2 56813  70.0003 293.5846 0002674 262.6105  97.4750 14.99132790 27638,6947.711,96.056,571.434,567.719,0.0
56813.0,STARLINK-6056,PAYLOAD,2023-11-24 07:33:09,14.99033453,0.000207,70.0007,293.08,281.7754,78.3173,-0.0011139,-0.00013602,0.0,0 STARLINK-6056,1 56813U 23078AY  23328.31469874 -.00013602  00000-0 -11139-2 0  9994,2 56813  70.0007 293.0800 0002070 281.7754  78.3173 14.99033453 27665,6948.018,96.062,571.322,568.445,0.0
56813.0,STARLINK-6056,PAYLOAD,2023-11-24 21:58:15,14.98849628,0.0002926,69.9996,291.5637,257.4162,102.667,-0.0028213,-0.00034048,0.0,0 STARLINK-6056,1 56813U 23078AY  23328.91545712 -.00034048  00000-0 -28213-2 0  9994,2 56813  69.9996 291.5637 0002926 257.4162 102.6670 14.98849628 27495,6948.586,96.074,572.485,568.418,0.0
56813.0,STARLINK-6056,PAYLOAD,2023-11-25 02:46:46,14.98687272,0.0002884,69.9995,291.0592,264.5884,95.4946,-0.0044177,-0.00052895,0.0,0 STARLINK-6056,1 56813U 23078AY  23329.11581324 -.00052895  00000-0 -44177-2 0  9993,2 56813  69.9995 291.0592 0002884 264.5884  95.4946 14.98687272 27784,6949.088,96.084,572.957,568.949,0.0
56813.0,STARLINK-6056,PAYLOAD,2023-11-25 07:35:07,14.986641,0.0003027,69.9994,290.5541,269.2808,90.8004,-0.0043865,-0.00052494,0.0,0 STARLINK-6056,1 56813U 23078AY  23329.31605532 -.00052494  00000-0 -43865-2 0  9991,2 56813  69.9994 290.5541 0003027 269.2808  90.8004 14.98664100 27553,6949.16,96.086,573.128,568.921,0.0
56813.0,STARLINK-6056,PAYLOAD,2023-11-25 22:00:10,14.9861363,0.0002605,69.9999,289.0389,263.7955,96.2908,-0.0038909,-0.00046551,0.0,0 STARLINK-6056,1 56813U 23078AY  23329.91678349 -.00046551  00000-0 -38909-2 0  9993,2 56813  69.9999 289.0389 0002605 263.7955  96.2908 14.98613630 27649,6949.316,96.089,572.991,569.371,0.0
56813.0,STARLINK-6056,PAYLOAD,2023-11-26 02:48:28,14.98638947,0.000303,70.0035,288.5406,204.359,155.7427,-0.0034915,-0.00041838,0.0,0 STARLINK-6056,1 56813U 23078AY  23330.11699811 -.00041838  00000-0 -34915-2 0  9990,2 56813  70.0035 288.5406 0003030 204.3590 155.7427 14.98638947 27933,6949.238,96.087,573.208,568.997,0.0
56813.0,STARLINK-6056,PAYLOAD,2023-11-26 07:36:55,14.98563898,0.0002435,70.0005,288.0293,271.5801,88.5079,-0.0039851,-0.00047606,0.0,0 STARLINK-6056,1 56813U 23078AY  23330.31730346 -.00047606  00000-0 -39851-2 0  9994,2 56813  70.0005 288.0293 0002435 271.5801  88.5079 14.98563898 27969,6949.47,96.092,573.027,569.642,0.0
56813.0,STARLINK-6056,PAYLOAD,2023-11-26 22:02:05,14.98334115,0.0002826,70.0002,286.5144,272.5485,87.535,-5.2151e-06,-1.55e-06,0.0,0 STARLINK-6056,1 56813U 23078AY  23330.91812402 -.00000155  00000-0 -52151-5 0  9993,2 56813  70.0002 286.5144 0002826 272.5485  87.5350 14.98334115 27797,6950.18,96.107,574.009,570.081,0.0
56813.0,STARLINK-6056,PAYLOAD,2023-11-27 04:26:40,14.98307295,0.0002379,70.0008,285.8422,256.8932,103.1961,-0.00030097,-3.68e-05,0.0,0 STARLINK-6056,1 56813U 23078AY  23331.18519012 -.00003680  00000-0 -30097-3 0  9993,2 56813  70.0008 285.8422 0002379 256.8932 103.1961 14.98307295 28095,6950.263,96.108,573.782,570.475,0.0
56813.0,STARLINK-6056,PAYLOAD,2023-11-27 14:00:01,14.98322,0.000287,70.0015,284.8355,269.6861,77.4818,-0.00071124,-8.567e-05,0.0,0 STARLINK-6056,1 56813U 23078AY  23331.58334491 -.00008567  00000-0 -71124-3 0  9998,2 56813  70.0015 284.8355 0002870 269.6861  77.4818 14.98322000 28158,6950.218,96.108,574.077,570.088,0.0
56813.0,STARLINK-6056,PAYLOAD,2023-11-27 22:00:00,14.98347379,0.0002931,70.0018,283.9951,265.4625,79.1703,0.00065588,7.745e-05,0.0,0 STARLINK-6056,1 56813U 23078AY  23331.91667824  .00007745  00000-0  65588-3 0  9996,2 56813  70.0018 283.9951 0002931 265.4625  79.1703 14.98347379  5695,6950.139,96.106,574.041,569.967,0.0
56813.0,STARLINK-6056,PAYLOAD,2023-11-28 01:16:23,14.98348482,0.0002329,70.0008,283.6528,242.0502,118.0421,-0.00038597,-4.697e-05,0.0,0 STARLINK-6056,1 56813U 23078AY  23332.05305181 -.00004697  00000-0 -38597-3 0  9992,2 56813  70.0008 283.6528 0002329 242.0502 118.0421 14.98348482 28227,6950.136,96.106,573.619,570.382,0.0
56813.0,STARLINK-6056,PAYLOAD,2023-11-28 06:04:47,14.98352091,0.00022,70.0015,283.1482,271.8635,88.2272,-0.00028394,-3.481e-05,0.0,0 STARLINK-6056,1 56813U 23078AY  23332.25332708 -.00003481  00000-0 -28394-3 0  9993,2 56813  70.0015 283.1482 0002200 271.8635  88.2272 14.98352091 27990,6950.125,96.106,573.519,570.461,0.0
56813.0,STARLINK-6056,PAYLOAD,2023-11-28 20:30:00,14.98268608,0.000245,70.0006,281.6346,249.315,110.7746,0.001068,0.00012653,0.0,0 STARLINK-6056,1 56813U 23078AY  23332.85417626  .00012653  00000-0  10680-2 0  9999,2 56813  70.0006 281.6346 0002450 249.3150 110.7746 14.98268608 28348,6950.383,96.111,573.951,570.545,0.0
56813.0,STARLINK-6056,PAYLOAD,2023-11-28 22:06:09,14.98270444,0.0002524,70.0004,281.4662,244.7351,115.3546,0.0010383,0.00012298,0.0,0 STARLINK-6056,1 56813U 23078AY  23332.92093756  .00012298  00000-0  10383-2 0  9996,2 56813  70.0004 281.4662 0002524 244.7351 115.3546 14.98270444 28091,6950.377,96.111,573.996,570.488,0.0
56813.0,STARLINK-6056,PAYLOAD,2023-11-29 02:54:32,14.98322137,0.0002702,70.0014,280.9619,262.305,97.7802,0.00028626,3.324e-05,0.0,0 STARLINK-6056,1 56813U 23078AY  23333.12121259  .00003324  00000-0  28626-3 0  9999,2 56813  70.0014 280.9619 0002702 262.3050  97.7802 14.98322137 28385,6950.217,96.108,573.96,570.204,0.0
56813.0,STARLINK-6056,PAYLOAD,2023-11-29 06:06:47,14.98342987,0.0003125,70.0016,280.6219,289.4565,70.6256,0.00041713,4.889e-05,0.0,0 STARLINK-6056,1 56813U 23078AY  23333.25471614  .00004889  00000-0  41713-3 0  9995,2 56813  70.0016 280.6219 0003125 289.4565  70.6256 14.98342987 28402,6950.153,96.106,574.19,569.846,0.0
56813.0,STARLINK-6056,PAYLOAD,2023-11-30 02:56:34,14.98324879,0.0002379,70.0012,278.4374,252.9422,107.1477,-0.00011604,-1.477e-05,0.0,0 STARLINK-6056,1 56813U 23078AY  23334.12261960 -.00001477  00000-0 -11604-3 0  9991,2 56813  70.0012 278.4374 0002379 252.9422 107.1477 14.98324879 28537,6950.209,96.107,573.727,570.42,0.0
56813.0,STARLINK-6056,PAYLOAD,2023-12-01 02:58:35,14.98328569,0.0002583,70.0013,275.9097,269.3115,90.7748,-7.4519e-05,-9.82e-06,0.0,0 STARLINK-6056,1 56813U 23078AY  23335.12401695 -.00000982  00000-0 -74519-4 0  9998,2 56813  70.0013 275.9097 0002583 269.3115  90.7748 14.98328569 28684,6950.197,96.107,573.858,570.267,0.0
56813.0,STARLINK-6056,PAYLOAD,2023-12-01 22:12:10,14.98329193,0.0002592,70.0011,273.8891,265.7931,94.2932,0.00015639,1.773e-05,0.0,0 STARLINK-6056,1 56813U 23078AY  23335.92512642  .00001773  00000-0  15639-3 0  9995,2 56813  70.0011 273.8891 0002592 265.7931  94.2932 14.98329193 28540,6950.195,96.107,573.862,570.259,0.0
56813.0,STARLINK-6056,PAYLOAD,2023-12-01 23:48:18,14.98329954,0.0002583,70.001,273.7212,265.7278,94.3586,0.00015864,1.8e-05,0.0,0 STARLINK-6056,1 56813U 23078AY  23335.99188590  .00001800  00000-0  15864-3 0  9994,2 56813  70.0010 273.7212 0002583 265.7278  94.3586 14.98329954 28810,6950.193,96.107,573.853,570.263,0.0
